[{"OBJECT_NAME":"STARLINK-1376","OBJECT_ID":"2020-025AR","EPOCH":"2026-03-09T06:17:00.428064","MEAN_MOTION":15.29355327,"ECCENTRICITY":0.00013647,"INCLINATION":53.1611,"RA_OF_ASC_NODE":79.7883,"ARG_OF_PERICENTER":91.4272,"MEAN_ANOMALY":268.6885,"EPHEMERIS_TYPE":0,"CLASSIFICATION_TYPE":"U","NORAD_CAT_ID":45570,"ELEMENT_SET_NO":999,"REV_AT_EPOCH":32543,"BSTAR":2.286897e-6,"MEAN_MOTION_DOT":-2.9e-6,"MEAN_MOTION_DDOT":0},{"OBJECT_NAME":"NUSHSAT1","OBJECT_ID":"2025-052B","EPOCH":"2026-03-09T15:31:41.225952","MEAN_MOTION":15.31903202,"ECCENTRICITY":0.0005501,"INCLINATION":97.4095,"RA_OF_ASC_NODE":325.7239,"ARG_OF_PERICENTER":84.7512,"MEAN_ANOMALY":275.4357,"EPHEMERIS_TYPE":0,"CLASSIFICATION_TYPE":"U","NORAD_CAT_ID":63211,"ELEMENT_SET_NO":999,"REV_AT_EPOCH":5488,"BSTAR":0.00074857,"MEAN_MOTION_DOT":0.00023034,"MEAN_MOTION_DDOT":0}]
