STARLINK-1376           
1 45570U 20025AR  26068.26181051 -.00000290  00000+0  22869-5 0  9999
2 45570  53.1611  79.7883 0001364  91.4272 268.6885 15.29355327325433
NUSHSAT1                
1 63211U 25052B   26068.64700493  .00023034  00000+0  74857-3 0  9997
2 63211  97.4095 325.7239 0005501  84.7512 275.4357 15.31903202 54882
